CTC1_L_00272016-03
1 10062U 22695RV  26075.70032407  .00000000  00000+0  00000-0 0  9995
2 10062  55.0000 180.0000 0000000   0.0000   0.0000 15.28598846    17
CTC1_L_00272016-04
1 10063U 25979NZ  26075.70032407  .00000000  00000+0  00000-0 0  9994
2 10063  55.0000 180.0000 0000000   0.0000  90.0000 15.28598846    17
CTC1_L_00272017-01
1 10064U 25730GJ  26075.70032407  .00000000  00000+0  00000-0 0  9990
2 10064  55.0000 192.0000 0000000   0.0000 192.0000 15.28598846    14
CTC1_L_00272017-02
1 10065U 26780EZ  26075.70032407  .00000000  00000+0  00000-0 0  9997
2 10065  55.0000 192.0000 0000000   0.0000 282.0000 15.28598846    15
CTC1_L_00272017-03
1 10066U 25104TU  26075.70032407  .00000000  00000+0  00000-0 0  9997
2 10066  55.0000 192.0000 0000000   0.0000  12.0000 15.28598846    17
CTC1_L_00272017-04
1 10067U 23840UL  26075.70032407  .00000000  00000+0  00000-0 0  9993
2 10067  55.0000 192.0000 0000000   0.0000 102.0000 15.28598846    18
CTC1_L_00272018-01
1 10068U 25142BD  26075.70032407  .00000000  00000+0  00000-0 0  9991
2 10068  55.0000 204.0000 0000000   0.0000 204.0000 15.28598846    16
CTC1_L_00272018-02
1 10069U 23960TX  26075.70032407  .00000000  00000+0  00000-0 0  9998
2 10069  55.0000 204.0000 0000000   0.0000 294.0000 15.28598846    16
CTC1_L_00272018-03
1 10070U 23853ND  26075.70032407  .00000000  00000+0  00000-0 0  9991
2 10070  55.0000 204.0000 0000000   0.0000  24.0000 15.28598846    19
CTC1_L_00272018-04
1 10071U 23275LB  26075.70032407  .00000000  00000+0  00000-0 0  9990
2 10071  55.0000 204.0000 0000000   0.0000 114.0000 15.28598846    10
CTC1_L_00272019-01
1 10072U 25176IG  26075.70032407  .00000000  00000+0  00000-0 0  9993
2 10072  55.0000 216.0000 0000000   0.0000 216.0000 15.28598846    17
CTC1_L_00272019-02
1 10073U 25279RT  26075.70032407  .00000000  00000+0  00000-0 0  9998
2 10073  55.0000 216.0000 0000000   0.0000 306.0000 15.28598846    18
CTC1_L_00272019-03
1 10074U 26830GK  26075.70032407  .00000000  00000+0  00000-0 0  9993
2 10074  55.0000 216.0000 0000000   0.0000  36.0000 15.28598846    19
CTC1_L_00272019-04
1 10075U 23527UC  26075.70032407  .00000000  00000+0  00000-0 0  9994
2 10075  55.0000 216.0000 0000000   0.0000 126.0000 15.28598846    10
CTC1_L_00272020-01
1 10076U 24476OY  26075.70032407  .00000000  00000+0  00000-0 0  9999
2 10076  55.0000 228.0000 0000000   0.0000 228.0000 15.28598846    17
CTC1_L_00272020-02
1 10077U 24573QE  26075.70032407  .00000000  00000+0  00000-0 0  9998
2 10077  55.0000 228.0000 0000000   0.0000 318.0000 15.28598846    18
CTC1_L_00272020-03
1 10078U 23433OC  26075.70032407  .00000000  00000+0  00000-0 0  9993
2 10078  55.0000 228.0000 0000000   0.0000  48.0000 15.28598846    19
CTC1_L_00272020-04
1 10079U 26435SC  26075.70032407  .00000000  00000+0  00000-0 0  9999
2 10079  55.0000 228.0000 0000000   0.0000 138.0000 15.28598846    10
CTC1_L_00272021-01
1 10080U 24662AH  26075.70032407  .00000000  00000+0  00000-0 0  9991
2 10080  55.0000 240.0000 0000000   0.0000 240.0000 15.28598846    10
CTC1_L_00272021-02
1 10081U 25098AP  26075.70032407  .00000000  00000+0  00000-0 0  9996
2 10081  55.0000 240.0000 0000000   0.0000 330.0000 15.28598846    11
CTC1_L_00272021-03
1 10082U 23136BG  26075.70032407  .00000000  00000+0  00000-0 0  9998
2 10082  55.0000 240.0000 0000000   0.0000  60.0000 15.28598846    12
CTC1_L_00272021-04
1 10083U 24084NG  26075.70032407  .00000000  00000+0  00000-0 0  9992
2 10083  55.0000 240.0000 0000000   0.0000 150.0000 15.28598846    13
CTC1_L_00272022-01
1 10084U 22125H   26075.70032407  .00000000  00000+0  00000-0 0  9997
2 10084  55.0000 252.0000 0000000   0.0000 252.0000 15.28598846    10
CTC1_L_00272022-02
1 10085U 26166UY  26075.70032407  .00000000  00000+0  00000-0 0  9997
2 10085  55.0000 252.0000 0000000   0.0000 342.0000 15.28598846    11
CTC1_L_00272022-03
1 10086U 23697EY  26075.70032407  .00000000  00000+0  00000-0 0  9994
2 10086  55.0000 252.0000 0000000   0.0000  72.0000 15.28598846    12
CTC1_L_00272022-04
1 10087U 26955EJ  26075.70032407  .00000000  00000+0  00000-0 0  9995
2 10087  55.0000 252.0000 0000000   0.0000 162.0000 15.28598846    13
CTC1_L_00272023-01
1 10088U 23885YL  26075.70032407  .00000000  00000+0  00000-0 0  9995
2 10088  55.0000 264.0000 0000000   0.0000 264.0000 15.28598846    10
CTC1_L_00272023-02
1 10089U 22770JL  26075.70032407  .00000000  00000+0  00000-0 0  9998
2 10089  55.0000 264.0000 0000000   0.0000 354.0000 15.28598846    11
CTC1_L_00272023-03
1 10090U 25008QJ  26075.70032407  .00000000  00000+0  00000-0 0  9997
2 10090  55.0000 264.0000 0000000   0.0000  84.0000 15.28598846    13
CTC1_L_00272023-04
1 10091U 23223IP  26075.70032407  .00000000  00000+0  00000-0 0  9995
2 10091  55.0000 264.0000 0000000   0.0000 174.0000 15.28598846    14
CTC1_L_00272024-01
1 10092U 24892ST  26075.70032407  .00000000  00000+0  00000-0 0  9999
2 10092  55.0000 276.0000 0000000   0.0000 276.0000 15.28598846    11
CTC1_L_00272024-02
1 10093U 22965MP  26075.70032407  .00000000  00000+0  00000-0 0  9999
2 10093  55.0000 276.0000 0000000   0.0000   6.0000 15.28598846    13
CTC1_L_00272024-03
1 10094U 24470BE  26075.70032407  .00000000  00000+0  00000-0 0  9993
2 10094  55.0000 276.0000 0000000   0.0000  96.0000 15.28598846    13
CTC1_L_00272024-04
1 10095U 22466AJ  26075.70032407  .00000000  00000+0  00000-0 0  9997
2 10095  55.0000 276.0000 0000000   0.0000 186.0000 15.28598846    14
CTC1_L_00272025-01
1 10096U 22120QC  26075.70032407  .00000000  00000+0  00000-0 0  9995
2 10096  55.0000 288.0000 0000000   0.0000 288.0000 15.28598846    11
CTC1_L_00272025-02
1 10097U 25830BX  26075.70032407  .00000000  00000+0  00000-0 0  9997
2 10097  55.0000 288.0000 0000000   0.0000  18.0000 15.28598846    13
CTC1_L_00272025-03
1 10098U 25593IC  26075.70032407  .00000000  00000+0  00000-0 0  9994
2 10098  55.0000 288.0000 0000000   0.0000 108.0000 15.28598846    14
CTC1_L_00272025-04
1 10099U 22840MD  26075.70032407  .00000000  00000+0  00000-0 0  9997
2 10099  55.0000 288.0000 0000000   0.0000 198.0000 15.28598846    14
CTC1_L_00272026-01
1 10100U 22446SL  26075.70032407  .00000000  00000+0  00000-0 0  9992
2 10100  55.0000 300.0000 0000000   0.0000 300.0000 15.28598846    17
CTC1_L_00272026-02
1 10101U 22357UN  26075.70032407  .00000000  00000+0  00000-0 0  9994
2 10101  55.0000 300.0000 0000000   0.0000  30.0000 15.28598846    18
CTC1_L_00272026-03
1 10102U 26914VQ  26075.70032407  .00000000  00000+0  00000-0 0  9998
2 10102  55.0000 300.0000 0000000   0.0000 120.0000 15.28598846    19
CTC1_L_00272026-04
1 10103U 25687IN  26075.70032407  .00000000  00000+0  00000-0 0  9995
2 10103  55.0000 300.0000 0000000   0.0000 210.0000 15.28598846    10
CTC1_L_00272027-01
1 10104U 23023LI  26075.70032407  .00000000  00000+0  00000-0 0  9998
2 10104  55.0000 312.0000 0000000   0.0000 312.0000 15.28598846    17
CTC1_L_00272027-02
1 10105U 24611MG  26075.70032407  .00000000  00000+0  00000-0 0  9993
2 10105  55.0000 312.0000 0000000   0.0000  42.0000 15.28598846    18
CTC1_L_00272027-03
1 10106U 22101CG  26075.70032407  .00000000  00000+0  00000-0 0  9996
2 10106  55.0000 312.0000 0000000   0.0000 132.0000 15.28598846    19
CTC1_L_00272027-04
1 10107U 23403VX  26075.70032407  .00000000  00000+0  00000-0 0  9993
2 10107  55.0000 312.0000 0000000   0.0000 222.0000 15.28598846    10
CTC1_L_00272028-01
1 10108U 23738ZD  26075.70032407  .00000000  00000+0  00000-0 0  9995
2 10108  55.0000 324.0000 0000000   0.0000 324.0000 15.28598846    17
CTC1_L_00272028-02
1 10109U 23791QZ  26075.70032407  .00000000  00000+0  00000-0 0  9995
2 10109  55.0000 324.0000 0000000   0.0000  54.0000 15.28598846    18
CTC1_L_00272028-03
1 10110U 26817SI  26075.70032407  .00000000  00000+0  00000-0 0  9999
2 10110  55.0000 324.0000 0000000   0.0000 144.0000 15.28598846    10
CTC1_L_00272028-04
1 10111U 26193QE  26075.70032407  .00000000  00000+0  00000-0 0  9997
2 10111  55.0000 324.0000 0000000   0.0000 234.0000 15.28598846    11
CTC1_L_00272029-01
1 10112U 25668QX  26075.70032407  .00000000  00000+0  00000-0 0  9994
2 10112  55.0000 336.0000 0000000   0.0000 336.0000 15.28598846    18
CTC1_L_00272029-02
1 10113U 25991KY  26075.70032407  .00000000  00000+0  00000-0 0  9994
2 10113  55.0000 336.0000 0000000   0.0000  66.0000 15.28598846    19
CTC1_L_00272029-03
1 10114U 26504NE  26075.70032407  .00000000  00000+0  00000-0 0  9996
2 10114  55.0000 336.0000 0000000   0.0000 156.0000 15.28598846    10
CTC1_L_00272029-04
1 10115U 26974RG  26075.70032407  .00000000  00000+0  00000-0 0  9998
2 10115  55.0000 336.0000 0000000   0.0000 246.0000 15.28598846    11
CTC1_L_00272030-01
1 10116U 23295XL  26075.70032407  .00000000  00000+0  00000-0 0  9992
2 10116  55.0000 348.0000 0000000   0.0000 348.0000 15.28598846    18
CTC1_L_00272030-02
1 10117U 22731DN  26075.70032407  .00000000  00000+0  00000-0 0  9997
2 10117  55.0000 348.0000 0000000   0.0000  78.0000 15.28598846    19
CTC1_L_00272030-03
1 10118U 22175OQ  26075.70032407  .00000000  00000+0  00000-0 0  9990
2 10118  55.0000 348.0000 0000000   0.0000 168.0000 15.28598846    10
CTC1_L_00272030-04
1 10119U 25867KW  26075.70032407  .00000000  00000+0  00000-0 0  9992
2 10119  55.0000 348.0000 0000000   0.0000 258.0000 15.28598846    11
